GLOBALSTAR M063         
1 26081U 00008A   24222.94953116 -.00000058  00000+0  35421-3 0  9996
2 26081  51.9919 211.2521 0004523  74.4144 308.5482 11.86159509120643
GLOBALSTAR M062         
1 26082U 00008B   24222.73982126 -.00000060  00000+0  27205-3 0  9991
2 26082  51.9852 291.6425 0007433 166.1452 343.0682 12.43441915457872
GLOBALSTAR M060         
1 26083U 00008C   24223.12069829 -.00000015  00000+0  75543-3 0  9990
2 26083  51.9988 206.5189 0003351 216.0484 222.2059 12.17638281114646
GLOBALSTAR M064         
1 26084U 00008D   24222.63737072 -.00000057  00000+0  37410-3 0  9995
2 26084  52.0051 314.5788 0001866 163.8906 196.1986 11.88520853130055
GLOBALSTAR M065         
1 31571U 07020A   24223.06247160 -.00000100  00000+0  20560-4 0  9993
2 31571  51.9892  93.2081 0010124 342.2149 165.0755 12.61975269794422
GLOBALSTAR M069         
1 31573U 07020C   24222.88439484 -.00000067  00000+0  20702-3 0  9995
2 31573  51.9956  49.5078 0001060  87.5392  53.1063 12.62245448795232
GLOBALSTAR M072         
1 31574U 07020D   24222.85874878 -.00000050  00000+0  29993-3 0  9996
2 31574  52.0076 145.5745 0000825  18.2659  23.7698 12.62261456793503
GLOBALSTAR M071         
1 31576U 07020F   24222.91081390 -.00000080  00000+0  13320-3 0  9994
2 31576  52.0072  54.6361 0001362 104.0055  35.9938 12.62271957456422
